IRIDIUM 145             
1 43253U 18030E   25135.30267926  .00000079  00000+0  21300-4 0  9995
2 43253  86.3939  96.7566 0002647  88.5514 271.5985 14.34217274373090
IRIDIUM 146             
1 43254U 18030F   25135.35342030  .00000003  00000+0 -59232-5 0  9995
2 43254  86.3939  96.7491 0002581  89.1926 270.9566 14.34217350373115
IRIDIUM 148             
1 43255U 18030G   25135.94964291  .00000288  00000+0  95723-4 0  9998
2 43255  86.3941  96.5365 0002443  83.5965 276.5509 14.34220130373248
IRIDIUM 142             
1 43256U 18030H   25135.98768037 -.00000012  00000+0 -11334-4 0  9996
2 43256  86.3939  96.4244 0002692  86.3164 273.8340 14.34217313373207
IRIDIUM 150             
1 43257U 18030J   25135.81642833  .00000074  00000+0  19321-4 0  9994
2 43257  86.3940  96.5993 0002589  89.4728 270.6765 14.34217166373221
IRIDIUM 143             
1 43258U 18030K   25135.44855966  .00000022  00000+0  65684-6 0  9995
2 43258  86.3944  96.8303 0002780  88.9558 271.1957 14.34217617373086
IRIDIUM 161             
1 43478U 18047C   25135.41797603  .00000371  00000+0  10419-3 0  9997
2 43478  86.4486 254.6321 0002067  93.6429 266.5008 14.43280983367763
IRIDIUM 152             
1 43479U 18047D   25135.42127612  .00000069  00000+0  17663-4 0  9999
2 43479  86.3960 254.4910 0002098  98.0354 262.1080 14.34217639365478
IRIDIUM 147             
1 43480U 18047E   25135.42761877  .00000013  00000+0 -25558-5 0  9991
2 43480  86.3961 254.4869 0002006  91.2214 268.9211 14.34217629365472
IRIDIUM 110             
1 43481U 18047F   25135.43396023  .00000064  00000+0  15871-4 0  9991
2 43481  86.3963 254.5653 0001730  96.0924 264.0469 14.34217890365462
IRIDIUM 162             
1 43482U 18047G   25135.41166710  .00000295  00000+0  81559-4 0  9990
2 43482  86.4485 254.5304 0002022 100.6728 259.4700 14.43281952367755
