[
    {
        "OBJECT_NAME": "IRIDIUM 145",
        "OBJECT_ID": "2018-030E",
        "EPOCH": "2025-05-15T07:15:51.488064",
        "MEAN_MOTION": 14.34217274,
        "ECCENTRICITY": 0.0002647,
        "INCLINATION": 86.3939,
        "RA_OF_ASC_NODE": 96.7566,
        "ARG_OF_PERICENTER": 88.5514,
        "MEAN_ANOMALY": 271.5985,
        "EPHEMERIS_TYPE": 0,
        "CLASSIFICATION_TYPE": "U",
        "NORAD_CAT_ID": 43253,
        "ELEMENT_SET_NO": 999,
        "REV_AT_EPOCH": 37309,
        "BSTAR": 2.13e-05,
        "MEAN_MOTION_DOT": 7.9e-07,
        "MEAN_MOTION_DDOT": 0,
        "period": 1.668815798,
        "radius": 7141440.824,
        "altitude": 763.4408237,
        "angle": 144.0053132
    },
    {
        "OBJECT_NAME": "IRIDIUM 146",
        "OBJECT_ID": "2018-030F",
        "EPOCH": "2025-05-15T08:28:55.513920",
        "MEAN_MOTION": 14.3421735,
        "ECCENTRICITY": 0.0002581,
        "INCLINATION": 86.3939,
        "RA_OF_ASC_NODE": 96.7491,
        "ARG_OF_PERICENTER": 89.1926,
        "MEAN_ANOMALY": 270.9566,
        "EPHEMERIS_TYPE": 0,
        "CLASSIFICATION_TYPE": "U",
        "NORAD_CAT_ID": 43254,
        "ELEMENT_SET_NO": 999,
        "REV_AT_EPOCH": 37311,
        "BSTAR": -5.92e-06,
        "MEAN_MOTION_DOT": 3e-08,
        "MEAN_MOTION_DDOT": 0,
        "period": 1.668815709,
        "radius": 7141440.571,
        "altitude": 763.4405714,
        "angle": 144.0053243
    },
    {
        "OBJECT_NAME": "IRIDIUM 148",
        "OBJECT_ID": "2018-030G",
        "EPOCH": "2025-05-15T22:47:29.147424",
        "MEAN_MOTION": 14.3422013,
        "ECCENTRICITY": 0.0002443,
        "INCLINATION": 86.3941,
        "RA_OF_ASC_NODE": 96.5365,
        "ARG_OF_PERICENTER": 83.5965,
        "MEAN_ANOMALY": 276.5509,
        "EPHEMERIS_TYPE": 0,
        "CLASSIFICATION_TYPE": "U",
        "NORAD_CAT_ID": 43255,
        "ELEMENT_SET_NO": 999,
        "REV_AT_EPOCH": 37324,
        "BSTAR": 9.57e-05,
        "MEAN_MOTION_DOT": 2.88e-06,
        "MEAN_MOTION_DDOT": 0,
        "period": 1.668812475,
        "radius": 7141431.343,
        "altitude": 763.4313431,
        "angle": 144.0057314
    },
    {
        "OBJECT_NAME": "IRIDIUM 142",
        "OBJECT_ID": "2018-030H",
        "EPOCH": "2025-05-15T23:42:15.583968",
        "MEAN_MOTION": 14.34217313,
        "ECCENTRICITY": 0.0002692,
        "INCLINATION": 86.3939,
        "RA_OF_ASC_NODE": 96.4244,
        "ARG_OF_PERICENTER": 86.3164,
        "MEAN_ANOMALY": 273.834,
        "EPHEMERIS_TYPE": 0,
        "CLASSIFICATION_TYPE": "U",
        "NORAD_CAT_ID": 43256,
        "ELEMENT_SET_NO": 999,
        "REV_AT_EPOCH": 37320,
        "BSTAR": -1.13e-05,
        "MEAN_MOTION_DOT": -1.2e-07,
        "MEAN_MOTION_DDOT": 0,
        "period": 1.668815753,
        "radius": 7141440.694,
        "altitude": 763.4406942,
        "angle": 144.0053189
    },
    {
        "OBJECT_NAME": "IRIDIUM 150",
        "OBJECT_ID": "2018-030J",
        "EPOCH": "2025-05-15T19:35:39.407712",
        "MEAN_MOTION": 14.34217166,
        "ECCENTRICITY": 0.0002589,
        "INCLINATION": 86.394,
        "RA_OF_ASC_NODE": 96.5993,
        "ARG_OF_PERICENTER": 89.4728,
        "MEAN_ANOMALY": 270.6765,
        "EPHEMERIS_TYPE": 0,
        "CLASSIFICATION_TYPE": "U",
        "NORAD_CAT_ID": 43257,
        "ELEMENT_SET_NO": 999,
        "REV_AT_EPOCH": 37322,
        "BSTAR": 1.93e-05,
        "MEAN_MOTION_DOT": 7.4e-07,
        "MEAN_MOTION_DDOT": 0,
        "period": 1.668815924,
        "radius": 7141441.182,
        "altitude": 763.4411822,
        "angle": 144.0052974
    },
    {
        "OBJECT_NAME": "IRIDIUM 143",
        "OBJECT_ID": "2018-030K",
        "EPOCH": "2025-05-15T10:45:55.554624",
        "MEAN_MOTION": 14.34217617,
        "ECCENTRICITY": 0.000278,
        "INCLINATION": 86.3944,
        "RA_OF_ASC_NODE": 96.8303,
        "ARG_OF_PERICENTER": 88.9558,
        "MEAN_ANOMALY": 271.1957,
        "EPHEMERIS_TYPE": 0,
        "CLASSIFICATION_TYPE": "U",
        "NORAD_CAT_ID": 43258,
        "ELEMENT_SET_NO": 999,
        "REV_AT_EPOCH": 37308,
        "BSTAR": 6.57e-07,
        "MEAN_MOTION_DOT": 2.2e-07,
        "MEAN_MOTION_DDOT": 0,
        "period": 1.668815399,
        "radius": 7141439.685,
        "altitude": 763.4396851,
        "angle": 144.0053634
    },
    {
        "OBJECT_NAME": "IRIDIUM 161",
        "OBJECT_ID": "2018-047C",
        "EPOCH": "2025-05-15T10:01:53.128992",
        "MEAN_MOTION": 14.43280983,
        "ECCENTRICITY": 0.0002067,
        "INCLINATION": 86.4486,
        "RA_OF_ASC_NODE": 254.6321,
        "ARG_OF_PERICENTER": 93.6429,
        "MEAN_ANOMALY": 266.5008,
        "EPHEMERIS_TYPE": 0,
        "CLASSIFICATION_TYPE": "U",
        "NORAD_CAT_ID": 43478,
        "ELEMENT_SET_NO": 999,
        "REV_AT_EPOCH": 36776,
        "BSTAR": 0.000104,
        "MEAN_MOTION_DOT": 3.71e-06,
        "MEAN_MOTION_DDOT": 0,
        "period": 1.658335745,
        "radius": 7111510.926,
        "altitude": 733.5109256,
        "angle": 145.3303405
    },
    {
        "OBJECT_NAME": "IRIDIUM 152",
        "OBJECT_ID": "2018-047D",
        "EPOCH": "2025-05-15T10:06:38.256768",
        "MEAN_MOTION": 14.34217639,
        "ECCENTRICITY": 0.0002098,
        "INCLINATION": 86.396,
        "RA_OF_ASC_NODE": 254.491,
        "ARG_OF_PERICENTER": 98.0354,
        "MEAN_ANOMALY": 262.108,
        "EPHEMERIS_TYPE": 0,
        "CLASSIFICATION_TYPE": "U",
        "NORAD_CAT_ID": 43479,
        "ELEMENT_SET_NO": 999,
        "REV_AT_EPOCH": 36547,
        "BSTAR": 1.77e-05,
        "MEAN_MOTION_DOT": 6.9e-07,
        "MEAN_MOTION_DDOT": 0,
        "period": 1.668815373,
        "radius": 7141439.612,
        "altitude": 763.4396121,
        "angle": 144.0053666
    },
    {
        "OBJECT_NAME": "IRIDIUM 147",
        "OBJECT_ID": "2018-047E",
        "EPOCH": "2025-05-15T10:15:46.261728",
        "MEAN_MOTION": 14.34217629,
        "ECCENTRICITY": 0.0002006,
        "INCLINATION": 86.3961,
        "RA_OF_ASC_NODE": 254.4869,
        "ARG_OF_PERICENTER": 91.2214,
        "MEAN_ANOMALY": 268.9211,
        "EPHEMERIS_TYPE": 0,
        "CLASSIFICATION_TYPE": "U",
        "NORAD_CAT_ID": 43480,
        "ELEMENT_SET_NO": 999,
        "REV_AT_EPOCH": 36547,
        "BSTAR": -2.56e-06,
        "MEAN_MOTION_DOT": 1.3e-07,
        "MEAN_MOTION_DDOT": 0,
        "period": 1.668815385,
        "radius": 7141439.645,
        "altitude": 763.4396453,
        "angle": 144.0053652
    },
    {
        "OBJECT_NAME": "IRIDIUM 110",
        "OBJECT_ID": "2018-047F",
        "EPOCH": "2025-05-15T10:24:54.163872",
        "MEAN_MOTION": 14.3421789,
        "ECCENTRICITY": 0.000173,
        "INCLINATION": 86.3963,
        "RA_OF_ASC_NODE": 254.5653,
        "ARG_OF_PERICENTER": 96.0924,
        "MEAN_ANOMALY": 264.0469,
        "EPHEMERIS_TYPE": 0,
        "CLASSIFICATION_TYPE": "U",
        "NORAD_CAT_ID": 43481,
        "ELEMENT_SET_NO": 999,
        "REV_AT_EPOCH": 36546,
        "BSTAR": 1.59e-05,
        "MEAN_MOTION_DOT": 6.4e-07,
        "MEAN_MOTION_DDOT": 0,
        "period": 1.668815081,
        "radius": 7141438.779,
        "altitude": 763.4387788,
        "angle": 144.0054034
    },
    {
        "OBJECT_NAME": "IRIDIUM 162",
        "OBJECT_ID": "2018-047G",
        "EPOCH": "2025-05-15T09:52:48.037440",
        "MEAN_MOTION": 14.43281952,
        "ECCENTRICITY": 0.0002022,
        "INCLINATION": 86.4485,
        "RA_OF_ASC_NODE": 254.5304,
        "ARG_OF_PERICENTER": 100.6728,
        "MEAN_ANOMALY": 259.47,
        "EPHEMERIS_TYPE": 0,
        "CLASSIFICATION_TYPE": "U",
        "NORAD_CAT_ID": 43482,
        "ELEMENT_SET_NO": 999,
        "REV_AT_EPOCH": 36775,
        "BSTAR": 8.16e-05,
        "MEAN_MOTION_DOT": 2.95e-06,
        "MEAN_MOTION_DDOT": 0,
        "period": 1.658334632,
        "radius": 7111507.743,
        "altitude": 733.5077425,
        "angle": 145.3304819
    }
]